{"type": "FeatureCollection", "features": [ {"type": "Feature", "properties": {"norad_id": 66605, "name": "STARLINK-36052", "group": "last-30-days", "lat": -17.835204474158907, "lon": 116.24122876471085, "alt_km": 445.2760673619987, "timestamp": "2025-12-22T09:53:36.142691+00:00", "meta": {"OBJECT_NAME": "STARLINK-36052", "OBJECT_ID": "2025-270T", "EPOCH": "2025-12-22T04:00:01.998720", "MEAN_MOTION": 15.40625172, "ECCENTRICITY": 0.0002191, "INCLINATION": 43.0003, "RA_OF_ASC_NODE": 137.8545, "ARG_OF_PERICENTER": 269.0635, "MEAN_ANOMALY": 140.8761, "EPHEMERIS_TYPE": 0, "CLASSIFICATION_TYPE": "U", "NORAD_CAT_ID": 66605, "ELEMENT_SET_NO": 999, "REV_AT_EPOCH": 591, "BSTAR": 0.001028, "MEAN_MOTION_DOT": 0.00042775, "MEAN_MOTION_DDOT": 0}, "tle": {"line1": "1 66605U 25270T   25356.16668980  .00042775  00000+0  10280-2 0  9991", "line2": "2 66605  43.0003 137.8545 0002191 269.0635 140.8761 15.40625172  5917"}}, "geometry": {"type": "Point", "coordinates": [116.24122876471085, -17.835204474158907]}}, {"type": "Feature", "properties": {"norad_id": 66606, "name": "STARLINK-36063", "group": "last-30-days", "lat": 34.669297667239725, "lon": -91.85636590952, "alt_km": 409.6600373148867, "timestamp": "2025-12-22T09:53:36.142701+00:00", "meta": {"OBJECT_NAME": "STARLINK-36063", "OBJECT_ID": "2025-270U", "EPOCH": "2025-12-19T11:48:20.511648", "MEAN_MOTION": 15.50662232, "ECCENTRICITY": 0.0001816, "INCLINATION": 42.9987, "RA_OF_ASC_NODE": 153.1595, "ARG_OF_PERICENTER": 282.0515, "MEAN_ANOMALY": 78.0141, "EPHEMERIS_TYPE": 0, "CLASSIFICATION_TYPE": "U", "NORAD_CAT_ID": 66606, "ELEMENT_SET_NO": 999, "REV_AT_EPOCH": 539, "BSTAR": 0.00079676, "MEAN_MOTION_DOT": 0.0004682, "MEAN_MOTION_DDOT": 0}, "tle": {"line1": "1 66606U 25270U   25353.49190407  .00046820  00000+0  79676-3 0  9999", "line2": "2 66606  42.9987 153.1595 0001816 282.0515  78.0141 15.50662232  5393"}}, "geometry": {"type": "Point", "coordinates": [-91.85636590952, 34.669297667239725]}}, {"type": "Feature", "properties": {"norad_id": 66607, "name": "STARLINK-35993", "group": "last-30-days", "lat": -9.679434599547092, "lon": 125.86287574965316, "alt_km": 445.0362086259729, "timestamp": "2025-12-22T09:53:36.142714+00:00", "meta": {"OBJECT_NAME": "STARLINK-35993", "OBJECT_ID": "2025-270V", "EPOCH": "2025-12-22T04:00:01.998720", "MEAN_MOTION": 15.40613844, "ECCENTRICITY": 0.0001842, "INCLINATION": 43.0002, "RA_OF_ASC_NODE": 137.8246, "ARG_OF_PERICENTER": 259.6336, "MEAN_ANOMALY": 162.7387, "EPHEMERIS_TYPE": 0, "CLASSIFICATION_TYPE": "U", "NORAD_CAT_ID": 66607, "ELEMENT_SET_NO": 999, "REV_AT_EPOCH": 581, "BSTAR": 0.00129, "MEAN_MOTION_DOT": 0.00053811, "MEAN_MOTION_DDOT": 0}, "tle": {"line1": "1 66607U 25270V   25356.16668980  .00053811  00000+0  12900-2 0  9997", "line2": "2 66607  43.0002 137.8246 0001842 259.6336 162.7387 15.40613844  5810"}}, "geometry": {"type": "Point", "coordinates": [125.86287574965316, -9.679434599547092]}}, {"type": "Feature", "properties": {"norad_id": 66608, "name": "STARLINK-36036", "group": "last-30-days", "lat": 33.89053092900055, "lon": -90.06469576325676, "alt_km": 409.4440556261143, "timestamp": "2025-12-22T09:53:36.142724+00:00", "meta": {"OBJECT_NAME": "STARLINK-36036", "OBJECT_ID": "2025-270W", "EPOCH": "2025-12-19T11:47:53.026080", "MEAN_MOTION": 15.50612484, "ECCENTRICITY": 0.0001538, "INCLINATION": 42.999, "RA_OF_ASC_NODE": 153.1562, "ARG_OF_PERICENTER": 266.4602, "MEAN_ANOMALY": 93.6082, "EPHEMERIS_TYPE": 0, "CLASSIFICATION_TYPE": "U", "NORAD_CAT_ID": 66608, "ELEMENT_SET_NO": 999, "REV_AT_EPOCH": 523, "BSTAR": 0.0010303, "MEAN_MOTION_DOT": 0.00060643, "MEAN_MOTION_DDOT": 0}, "tle": {"line1": "1 66608U 25270W   25353.49158595  .00060643  00000+0  10303-2 0  9993", "line2": "2 66608  42.9990 153.1562 0001538 266.4602  93.6082 15.50612484  5231"}}, "geometry": {"type": "Point", "coordinates": [-90.06469576325676, 33.89053092900055]}}, {"type": "Feature", "properties": {"norad_id": 66609, "name": "STARLINK-36034", "group": "last-30-days", "lat": 34.41831391193227, "lon": -91.26584471129614, "alt_km": 406.444918746296, "timestamp": "2025-12-22T09:53:36.142734+00:00", "meta": {"OBJECT_NAME": "STARLINK-36034", "OBJECT_ID": "2025-270X", "EPOCH": "2025-12-20T17:09:50.095296", "MEAN_MOTION": 15.50362019, "ECCENTRICITY": 0.00048554, "INCLINATION": 42.9992, "RA_OF_ASC_NODE": 145.9955, "ARG_OF_PERICENTER": 131.0653, "MEAN_ANOMALY": 229.0628, "EPHEMERIS_TYPE": 0, "CLASSIFICATION_TYPE": "U", "NORAD_CAT_ID": 66609, "ELEMENT_SET_NO": 999, "REV_AT_EPOCH": 542, "BSTAR": 0.0011127835, "MEAN_MOTION_DOT": 0.00065002, "MEAN_MOTION_DDOT": 0}, "tle": {"line1": "1 66609U 25270X   25354.71516314  .00065002  00000+0  11128-2 0  9997", "line2": "2 66609  42.9992 145.9955 0004855 131.0653 229.0628 15.50362019  5425"}}, "geometry": {"type": "Point", "coordinates": [-91.26584471129614, 34.41831391193227]}}, {"type": "Feature", "properties": {"norad_id": 66610, "name": "STARLINK-35680", "group": "last-30-days", "lat": 7.205331463926275, "lon": 144.14541689956943, "alt_km": 442.9902220851536, "timestamp": "2025-12-22T09:53:36.142744+00:00", "meta": {"OBJECT_NAME": "STARLINK-35680", "OBJECT_ID": "2025-270Y", "EPOCH": "2025-12-22T04:00:01.998720", "MEAN_MOTION": 15.40634045, "ECCENTRICITY": 0.0002099, "INCLINATION": 42.9999, "RA_OF_ASC_NODE": 137.7632, "ARG_OF_PERICENTER": 277.7388, "MEAN_ANOMALY": 169.4929, "EPHEMERIS_TYPE": 0, "CLASSIFICATION_TYPE": "U", "NORAD_CAT_ID": 66610, "ELEMENT_SET_NO": 999, "REV_AT_EPOCH": 602, "BSTAR": 0.0010373, "MEAN_MOTION_DOT": 0.00043176, "MEAN_MOTION_DDOT": 0}, "tle": {"line1": "1 66610U 25270Y   25356.16668980  .00043176  00000+0  10373-2 0  9996", "line2": "2 66610  42.9999 137.7632 0002099 277.7388 169.4929 15.40634045  6024"}}, "geometry": {"type": "Point", "coordinates": [144.14541689956943, 7.205331463926275]}}, {"type": "Feature", "properties": {"norad_id": 66611, "name": "STARLINK-35583", "group": "last-30-days", "lat": 23.3101972402971, "lon": 163.82830301870246, "alt_km": 440.87046734804517, "timestamp": "2025-12-22T09:53:36.142753+00:00", "meta": {"OBJECT_NAME": "STARLINK-35583", "OBJECT_ID": "2025-270Z", "EPOCH": "2025-12-22T04:00:01.998720", "MEAN_MOTION": 15.40657038, "ECCENTRICITY": 0.0001623, "INCLINATION": 43.0003, "RA_OF_ASC_NODE": 137.7024, "ARG_OF_PERICENTER": 281.2406, "MEAN_ANOMALY": 190.8452, "EPHEMERIS_TYPE": 0, "CLASSIFICATION_TYPE": "U", "NORAD_CAT_ID": 66611, "ELEMENT_SET_NO": 999, "REV_AT_EPOCH": 602, "BSTAR": 0.0005702, "MEAN_MOTION_DOT": 0.00023555, "MEAN_MOTION_DDOT": 0}, "tle": {"line1": "1 66611U 25270Z   25356.16668980  .00023555  00000+0  57020-3 0  9997", "line2": "2 66611  43.0003 137.7024 0001623 281.2406 190.8452 15.40657038  6027"}}, "geometry": {"type": "Point", "coordinates": [163.82830301870246, 23.3101972402971]}}, {"type": "Feature", "properties": {"norad_id": 66612, "name": "STARLINK-36039", "group": "last-30-days", "lat": 21.932875779269196, "lon": -68.71081599539205, "alt_km": 441.3187224645817, "timestamp": "2025-12-22T09:53:36.142763+00:00", "meta": {"OBJECT_NAME": "STARLINK-36039", "OBJECT_ID": "2025-270AA", "EPOCH": "2025-12-22T03:02:09.627648", "MEAN_MOTION": 15.40704555, "ECCENTRICITY": 0.0001793, "INCLINATION": 43.0006, "RA_OF_ASC_NODE": 138.5371, "ARG_OF_PERICENTER": 273.4132, "MEAN_ANOMALY": 86.6519, "EPHEMERIS_TYPE": 0, "CLASSIFICATION_TYPE": "U", "NORAD_CAT_ID": 66612, "ELEMENT_SET_NO": 999, "REV_AT_EPOCH": 579, "BSTAR": 6.2807e-05, "MEAN_MOTION_DOT": 2.321e-05, "MEAN_MOTION_DDOT": 0}, "tle": {"line1": "1 66612U 25270AA  25356.12650032  .00002321  00000+0  62807-4 0  9991", "line2": "2 66612  43.0006 138.5371 0001793 273.4132  86.6519 15.40704555  5798"}}, "geometry": {"type": "Point", "coordinates": [-68.71081599539205, 21.932875779269196]}}, {"type": "Feature", "properties": {"norad_id": 66613, "name": "STARLINK-36037", "group": "last-30-days", "lat": 5.5102693073007, "lon": -49.11612016758326, "alt_km": 442.4611020179709, "timestamp": "2025-12-22T09:53:36.142773+00:00", "meta": {"OBJECT_NAME": "STARLINK-36037", "OBJECT_ID": "2025-270AB", "EPOCH": "2025-12-21T11:22:10.567488", "MEAN_MOTION": 15.40728039, "ECCENTRICITY": 0.00012938, "INCLINATION": 42.9987, "RA_OF_ASC_NODE": 142.2364, "ARG_OF_PERICENTER": 234.5292, "MEAN_ANOMALY": 125.5444, "EPHEMERIS_TYPE": 0, "CLASSIFICATION_TYPE": "U", "NORAD_CAT_ID": 66613, "ELEMENT_SET_NO": 999, "REV_AT_EPOCH": 569, "BSTAR": 0.00091489288, "MEAN_MOTION_DOT": 0.0003814, "MEAN_MOTION_DDOT": 0}, "tle": {"line1": "1 66613U 25270AB  25355.47373342  .00038140  00000+0  91489-3 0  9990", "line2": "2 66613  42.9987 142.2364 0001293 234.5292 125.5444 15.40728039  5691"}}, "geometry": {"type": "Point", "coordinates": [-49.11612016758326, 5.5102693073007]}}, {"type": "Feature", "properties": {"norad_id": 66614, "name": "STARLINK-36040", "group": "last-30-days", "lat": -41.505010369707634, "lon": 64.82730142517492, "alt_km": 446.18534554529924, "timestamp": "2025-12-22T09:53:36.142783+00:00", "meta": {"OBJECT_NAME": "STARLINK-36040", "OBJECT_ID": "2025-270AC", "EPOCH": "2025-12-22T02:26:40.684128", "MEAN_MOTION": 15.40720324, "ECCENTRICITY": 0.0001466, "INCLINATION": 42.9999, "RA_OF_ASC_NODE": 138.3474, "ARG_OF_PERICENTER": 283.7425, "MEAN_ANOMALY": 76.3268, "EPHEMERIS_TYPE": 0, "CLASSIFICATION_TYPE": "U", "NORAD_CAT_ID": 66614, "ELEMENT_SET_NO": 999, "REV_AT_EPOCH": 563, "BSTAR": 0.0014724, "MEAN_MOTION_DOT": 0.00061743, "MEAN_MOTION_DDOT": 0}, "tle": {"line1": "1 66614U 25270AC  25356.10185977  .00061743  00000+0  14724-2 0  9998", "line2": "2 66614  42.9999 138.3474 0001466 283.7425  76.3268 15.40720324  5639"}}, "geometry": {"type": "Point", "coordinates": [64.82730142517492, -41.505010369707634]}}]}